ORBCOMM FM37            
1 33064U 08031E   25300.82784610  .00002949  00000+0  41016-3 0  9992
2 33064  48.4390  72.8300 0005840 229.0930 295.2178 14.80321719933698
ORBCOMM FM40            
1 33065U 08031F   25300.79598097  .00003689  00000+0  47808-3 0  9998
2 33065  48.4414  54.7350 0007009 243.4780 249.8957 14.82744353933833
VESSELSAT 1             
1 37840U 11058C   25300.52121875  .00000420  00000+0  84243-4 0  9998
2 37840  19.9634  13.1133 0013527 201.7824 158.2006 14.11383780725024
ORBCOMM FM109           
1 40086U 14040A   25300.89772155  .00000957  00000+0  24077-3 0  9994
2 40086  47.0018 109.4250 0002150 235.1967 124.8716 14.58415658600431
ORBCOMM FM107           
1 40087U 14040B   25300.78243306  .00001034  00000+0  25681-3 0  9993
2 40087  47.0036 110.8787 0001267 191.9791 168.1065 14.58491867600495
ORBCOMM FM106           
1 40088U 14040C   25300.94055971  .00001879  00000+0  34201-3 0  9996
2 40088  47.0604 281.5548 0017396 321.9899  37.9764 14.69836129603007
ORBCOMM FM111           
1 40089U 14040D   25300.81212489  .00004973  00000+0  56541-3 0  9991
2 40089  46.9993 114.2142 0028656 109.3743 251.0255 14.87246201609967
ORBCOMM FM104           
1 40090U 14040E   25300.91722694  .00000894  00000+0  23488-3 0  9990
2 40090  47.0035 145.4572 0015866  91.6636 268.6066 14.56883284599971
